NORAD_CAT_ID,OBJECT_NAME,OBJECT_TYPE,EPOCH,MEAN_MOTION,ECCENTRICITY,INCLINATION,RA_OF_ASC_NODE,ARG_OF_PERICENTER,MEAN_ANOMALY,BSTAR,MEAN_MOTION_DOT,MEAN_MOTION_DDOT,TLE_LINE0,TLE_LINE1,TLE_LINE2,SEMIMAJOR_AXIS,PERIOD,APOGEE,PERIGEE,DECAYED
53620.0,STARLINK-4615,PAYLOAD,2022-10-25 14:00:01,15.3286503,0.0001786,53.2173,1.4886,43.2485,164.343,-0.036475,-0.01076412,0.0,0 STARLINK-4615,1 53620U 22104AJ  22298.58334491 -.01076412  00000-0 -36475-1 0  9994,2 53620  53.2173   1.4886 0001786  43.2485 164.3430 15.32865030  1302,6845.406,93.942,468.494,466.049,0.0
53620.0,STARLINK-4615,PAYLOAD,2022-10-25 22:00:01,15.32111475,0.0001692,53.2173,359.9353,34.0779,213.5672,-0.037751,-0.01086877,0.0,0 STARLINK-4615,1 53620U 22104AJ  22298.91668981 -.01086877  00000-0 -37751-1 0  9999,2 53620  53.2173 359.9353 0001692  34.0779 213.5672 15.32111475  1304,6847.651,93.988,470.674,468.357,0.0
53620.0,STARLINK-4615,PAYLOAD,2022-10-26 14:00:01,15.30578252,0.0001933,53.2175,356.839,30.015,294.8139,-0.038748,-0.01065145,0.0,0 STARLINK-4615,1 53620U 22104AJ  22299.58334491 -.01065145  00000-0 -38748-1 0  9991,2 53620  53.2175 356.8390 0001933  30.0150 294.8139 15.30578252  1308,6852.223000000001,94.082,475.412,472.763,0.0
53620.0,STARLINK-4615,PAYLOAD,2022-10-26 22:00:00,15.29819997,0.0001429,53.2175,355.291,45.1112,316.9709,-0.039786,-0.0106778999999999,0.0,0 STARLINK-4615,1 53620U 22104AJ  22299.91667824 -.01067790  00000-0 -39786-1 0  9998,2 53620  53.2175 355.2910 0001429  45.1112 316.9709 15.29819997  1305,6854.486999999999,94.129,477.331,475.372,0.0
53620.0,STARLINK-4615,PAYLOAD,2022-10-27 14:00:01,15.28297717,0.0001633,53.2174,352.2055,41.5756,32.3371,-0.041461,-0.010621,0.0,0 STARLINK-4615,1 53620U 22104AJ  22300.58335648 -.01062100  00000-0 -41461-1 0  9993,2 53620  53.2174 352.2055 0001633  41.5756  32.3371 15.28297717  1305,6859.038000000001,94.222,482.023,479.783,0.0
53620.0,STARLINK-4615,PAYLOAD,2022-10-27 22:00:00,15.27539426,0.0001733,53.2175,350.6629,39.0648,69.2991,-0.042518,-0.01063953,0.0,0 STARLINK-4615,1 53620U 22104AJ  22300.91667824 -.01063953  00000-0 -42518-1 0  9995,2 53620  53.2175 350.6629 0001733  39.0648  69.2991 15.27539426  1300,6861.308000000001,94.269,484.362,481.984,0.0
53620.0,STARLINK-4615,PAYLOAD,2022-10-28 08:00:01,15.26588738,0.0001794,53.2172,348.74,39.9533,200.3338,-0.043669,-0.01061676,0.0,0 STARLINK-4615,1 53620U 22104AJ  22301.33335648 -.01061676  00000-0 -43669-1 0  9996,2 53620  53.2172 348.7400 0001794  39.9533 200.3338 15.26588738  9615,6864.156,94.328,487.252,484.789,0.0
53620.0,STARLINK-4615,PAYLOAD,2022-10-28 14:00:01,15.26024441,0.0001795,53.217,347.5882,43.6664,131.0484,-0.044724,-0.01068229,0.0,0 STARLINK-4615,1 53620U 22104AJ  22301.58335648 -.01068229  00000-0 -44724-1 0  9997,2 53620  53.2170 347.5882 0001795  43.6664 131.0484 15.26024441  1308,6865.848000000001,94.363,488.945,486.481,0.0
53620.0,STARLINK-4615,PAYLOAD,2022-10-28 22:00:01,15.25259775,0.0001779,53.2173,346.0508,40.9824,165.5127,-0.045462,-0.01061573,0.0,0 STARLINK-4615,1 53620U 22104AJ  22301.91668981 -.01061573  00000-0 -45462-1 0  9998,2 53620  53.2173 346.0508 0001779  40.9824 165.5127 15.25259775  1305,6868.142,94.41,491.229,488.786,0.0
53620.0,STARLINK-4615,PAYLOAD,2022-10-29 08:00:01,15.24310781,0.0001713,53.2172,344.1349,36.5811,298.2866,-0.046812,-0.01062196,0.0,0 STARLINK-4615,1 53620U 22104AJ  22302.33334491 -.01062196  00000-0 -46812-1 0  9993,2 53620  53.2172 344.1349 0001713  36.5811 298.2866 15.24310781  9767,6870.993,94.469,494.035,491.681,0.0
53620.0,STARLINK-4615,PAYLOAD,2022-10-29 12:00:00,15.23946579,0.000182,53.2171,343.3697,44.04600000000001,125.7888,-0.0483269999999999,-0.01082785,0.0,0 STARLINK-4615,1 53620U 22104AJ  22302.50001157 -.01082785  00000-0 -48327-1 0  9991,2 53620  53.2171 343.3697 0001820  44.0460 125.7888 15.23946579  1305,6872.087,94.492,495.203,492.702,0.0
53620.0,STARLINK-4615,PAYLOAD,2022-10-29 22:00:01,15.22981429,0.0001571999999999,53.2175,341.4548,44.1045,252.2435,-0.048677,-0.01061446,0.0,0 STARLINK-4615,1 53620U 22104AJ  22302.91668981 -.01061446  00000-0 -48677-1 0  9999,2 53620  53.2175 341.4548 0001572  44.1045 252.2435 15.22981429  1303,6874.991,94.551,497.936,495.775,0.0
53620.0,STARLINK-4615,PAYLOAD,2022-10-30 14:00:01,15.21447772,0.000176,53.217,338.4015,39.0191,312.6096,-0.04983,-0.01040131,0.0,0 STARLINK-4615,1 53620U 22104AJ  22303.58334491 -.01040131  00000-0 -49830-1 0  9999,2 53620  53.2170 338.4015 0001760  39.0191 312.6096 15.21447772  1308,6879.61,94.647,502.686,500.264,0.0
53620.0,STARLINK-4615,PAYLOAD,2022-10-30 22:00:01,15.20701926,0.0001695,53.2174,336.8748,35.2549,342.7327,-0.052011,-0.01060212,0.0,0 STARLINK-4615,1 53620U 22104AJ  22303.91668981 -.01060212  00000-0 -52011-1 0  9997,2 53620  53.2174 336.8748 0001695  35.2549 342.7327 15.20701926  1303,6881.859,94.693,504.891,502.5580000000001,0.0
53620.0,STARLINK-4615,PAYLOAD,2022-10-31 14:00:01,15.19185656,0.0001895,53.217,333.8321,36.0784,31.7062,-0.054545,-0.01063303,0.0,0 STARLINK-4615,1 53620U 22104AJ  22304.58334491 -.01063303  00000-0 -54545-1 0  9995,2 53620  53.2170 333.8321 0001895  36.0784  31.7062 15.19185656  1300,6886.437,94.788,509.607,506.997,0.0
53620.0,STARLINK-4615,PAYLOAD,2022-10-31 22:00:01,15.18423824,0.0001769,53.2174,332.3108,37.8982,53.5144,-0.055615,-0.01073999,0.0,0 STARLINK-4615,1 53620U 22104AJ  22304.91668981 -.01073999  00000-0 -55615-1 0  9997,2 53620  53.2174 332.3108 0001769  37.8982  53.5144 15.18423824 10168,6888.741,94.835,511.824,509.387,0.0
53620.0,STARLINK-4615,PAYLOAD,2022-11-01 14:00:01,15.16911056,0.0001936,53.2169,329.2787,38.0394,97.6924,-0.0585539999999999,-0.01081807,0.0,0 STARLINK-4615,1 53620U 22104AJ  22305.58334491 -.01081807  00000-0 -58554-1 0  9999,2 53620  53.2169 329.2787 0001936  38.0394  97.6924 15.16911056  1304,6893.32,94.93,516.519,513.85,0.0
53620.0,STARLINK-4615,PAYLOAD,2022-11-01 22:00:00,15.16145769,0.0001844,53.2174,327.7628,40.7611,115.7992,-0.059419,-0.01074477,0.0,0 STARLINK-4615,1 53620U 22104AJ  22305.91667824 -.01074477  00000-0 -59419-1 0  9991,2 53620  53.2174 327.7628 0001844  40.7611 115.7992 15.16145769 10315,6895.639,94.978,518.776,516.2330000000002,0.0
53620.0,STARLINK-4615,PAYLOAD,2022-11-02 14:00:01,15.14627267,0.0001915,53.2172,324.7413,40.3967,155.0731,-0.0620519999999999,-0.0107452,0.0,0 STARLINK-4615,1 53620U 22104AJ  22306.58334491 -.01074520  00000-0 -62052-1 0  9992,2 53620  53.2172 324.7413 0001915  40.3967 155.0731 15.14627267  1304,6900.246999999999,95.073,523.434,520.7909999999998,0.0
53620.0,STARLINK-4615,PAYLOAD,2022-11-02 22:00:00,15.13867224,0.0001916,53.2173,323.2306,38.9819,174.5756,-0.063382,-0.01074178,0.0,0 STARLINK-4615,1 53620U 22104AJ  22306.91667824 -.01074178  00000-0 -63382-1 0  9994,2 53620  53.2173 323.2306 0001916  38.9819 174.5756 15.13867224 10468,6902.557,95.121,525.744,523.099,0.0
53620.0,STARLINK-4615,PAYLOAD,2022-11-03 14:00:01,15.12357036,0.0001812,53.2168,320.2197,40.3702,206.617,-0.066958,-0.01086509,0.0,0 STARLINK-4615,1 53620U 22104AJ  22307.58334491 -.01086509  00000-0 -66958-1 0  9992,2 53620  53.2168 320.2197 0001812  40.3702 206.6170 15.12357036  1304,6907.151,95.216,530.268,527.764,0.0
53620.0,STARLINK-4615,PAYLOAD,2022-11-03 22:00:00,15.11587968,0.0001720999999999,53.2174,318.7144,43.9786,218.3625,-0.067496,-0.01072948,0.0,0 STARLINK-4615,1 53620U 22104AJ  22307.91667824 -.01072948  00000-0 -67496-1 0  9998,2 53620  53.2174 318.7144 0001721  43.9786 218.3625 15.11587968 10612,6909.494000000002,95.264,532.548,530.17,0.0
53620.0,STARLINK-4615,PAYLOAD,2022-11-04 00:00:00,15.11397379,0.0001678,53.2176,318.3388,39.7855,316.2502,-0.067755,-0.01071456,0.0,0 STARLINK-4615,1 53620U 22104AJ  22308.00001157 -.01071456  00000-0 -67755-1 0  9991,2 53620  53.2176 318.3388 0001678  39.7855 316.2502 15.11397379  1304,6910.075,95.276,533.099,530.78,0.0
53620.0,STARLINK-4615,PAYLOAD,2022-11-04 14:00:01,15.10067937,0.000181,53.2172,315.714,37.0372,253.2615,-0.0702179999999999,-0.01070213,0.0,0 STARLINK-4615,1 53620U 22104AJ  22308.58334491 -.01070213  00000-0 -70218-1 0  9992,2 53620  53.2172 315.7140 0001810  37.0372 253.2615 15.10067937  1308,6914.13,95.36,537.246,534.743,0.0
53620.0,STARLINK-4615,PAYLOAD,2022-11-04 20:00:01,15.09373124,0.0002157,53.2175,314.5887,30.5248,179.3362,-0.039829,-0.00599631,0.0,0 STARLINK-4615,1 53620U 22104AJ  22308.83334491 -.00599631  00000-0 -39829-1 0  9992,2 53620  53.2175 314.5887 0002157  30.5248 179.3362 15.09373124 10753,6916.251,95.404,539.6080000000002,536.624,0.0
53620.0,STARLINK-4615,PAYLOAD,2022-11-05 06:00:00,15.08814106,0.0001754,53.2144,312.7187,32.4691,282.1404,0.00072299,0.00011229,0.0,0 STARLINK-4615,1 53620U 22104AJ  22309.25001157  .00011229  00000-0  72299-3 0  9999,2 53620  53.2144 312.7187 0001754  32.4691 282.1404 15.08814106 10824,6917.96,95.439,541.038,538.611,0.0
53620.0,STARLINK-4615,PAYLOAD,2022-11-05 14:00:01,15.08864861,0.0001882,53.2138,311.2214,35.9197,290.3313,0.0017433,0.00027585,0.0,0 STARLINK-4615,1 53620U 22104AJ  22309.58335648  .00027585  00000-0  17433-2 0  9990,2 53620  53.2138 311.2214 0001882  35.9197 290.3313 15.08864861  1309,6917.804,95.436,540.971,538.367,0.0
53620.0,STARLINK-4615,PAYLOAD,2022-11-05 22:00:01,15.08891566,0.0001793,53.2144,309.7232,45.0648,292.826,-0.00095389,-0.00015459,0.0,0 STARLINK-4615,1 53620U 22104AJ  22309.91668981 -.00015459  00000-0 -95389-3 0  9992,2 53620  53.2144 309.7232 0001793  45.0648 292.8260 15.08891566  1302,6917.723000000001,95.434,540.828,538.347,0.0
53620.0,STARLINK-4615,PAYLOAD,2022-11-06 06:00:00,15.08856774,0.0002077,53.2149,308.2282,45.8131,303.6731,-0.00096827,-0.00015673,0.0,0 STARLINK-4615,1 53620U 22104AJ  22310.25001157 -.00015673  00000-0 -96827-3 0  9993,2 53620  53.2149 308.2282 0002077  45.8131 303.6731 15.08856774 10976,6917.829000000002,95.436,541.131,538.257,0.0
